<?xml version="1.0" encoding="UTF-8"?><kml xmlns="http://www.opengis.net/kml/2.2"><Document><name>Glacier Family Trip Final Pins</name><Placemark><name>Lake McDonald Lodge visitor parking · parking</name><description>Parking</description><Point><coordinates>-113.881253,48.617415,0</coordinates></Point></Placemark><Placemark><name>Lake McDonald Lodge</name><description>Historic lodge exterior, mountain setting, and lake-facing lawn.</description><Point><coordinates>-113.879097,48.617419,0</coordinates></Point></Placemark><Placemark><name>Lake McDonald Lodge Dock</name><description>Dock, clear water, and the long mountain corridor of Lake McDonald.</description><Point><coordinates>-113.879732,48.617915,0</coordinates></Point></Placemark><Placemark><name>Apgar Village public parking · parking</name><description>Parking</description><Point><coordinates>-113.990500,48.527500,0</coordinates></Point></Placemark><Placemark><name>Apgar Beach</name><description>Colored shoreline stones, clear water, and the classic long view toward Glacier peaks.</description><Point><coordinates>-113.991999,48.528257,0</coordinates></Point></Placemark><Placemark><name>Avalanche Picnic Area parking · parking</name><description>Parking</description><Point><coordinates>-113.819053,48.680689,0</coordinates></Point></Placemark><Placemark><name>Avalanche Gorge</name><description>Turquoise Avalanche Creek squeezed through a mossy gorge.</description><Point><coordinates>-113.814366,48.676526,0</coordinates></Point></Placemark><Placemark><name>Avalanche Lake</name><description>The final lake shoreline: steep mountains, glacial basin, and multiple waterfalls.</description><Point><coordinates>-113.786823,48.656201,0</coordinates></Point></Placemark><Placemark><name>The Loop pullout · parking</name><description>Parking</description><Point><coordinates>-113.800428,48.754865,0</coordinates></Point></Placemark><Placemark><name>Big Bend pullout · parking</name><description>Parking</description><Point><coordinates>-113.724780,48.727637,0</coordinates></Point></Placemark><Placemark><name>Big Bend upper photo angle</name><description>A slightly shifted angle for the road, valley, and Garden Wall.</description><Point><coordinates>-113.724030,48.727940,0</coordinates></Point></Placemark><Placemark><name>Logan Pass Visitor Center parking · parking</name><description>Parking</description><Point><coordinates>-113.718260,48.695390,0</coordinates></Point></Placemark><Placemark><name>Hanging Gardens, Logan Pass</name><description>Alpine meadow/boardwalk scenery on the way to the overlook.</description><Point><coordinates>-113.731082,48.691283,0</coordinates></Point></Placemark><Placemark><name>Hidden Lake Overlook</name><description>The must-see final view of Hidden Lake and Bearhat Mountain.</description><Point><coordinates>-113.741702,48.687219,0</coordinates></Point></Placemark><Placemark><name>Jackson Glacier Overlook pullout · parking</name><description>Parking</description><Point><coordinates>-113.652715,48.677792,0</coordinates></Point></Placemark><Placemark><name>Wild Goose Island Overlook pullout · parking</name><description>Parking</description><Point><coordinates>-113.531078,48.691253,0</coordinates></Point></Placemark><Placemark><name>Sun Point parking / picnic area · parking</name><description>Parking</description><Point><coordinates>-113.580210,48.676180,0</coordinates></Point></Placemark><Placemark><name>Sun Point</name><description>Wide elevated view over St. Mary Lake and mountain walls.</description><Point><coordinates>-113.577775,48.674902,0</coordinates></Point></Placemark><Placemark><name>Baring Falls</name><description>Compact waterfall dropping into a blue-green pool.</description><Point><coordinates>-113.593594,48.676977,0</coordinates></Point></Placemark><Placemark><name>St. Mary Falls Trailhead parking · parking</name><description>Parking</description><Point><coordinates>-113.604333,48.675133,0</coordinates></Point></Placemark><Placemark><name>St. Mary River footbridge</name><description>Turquoise water immediately before the falls.</description><Point><coordinates>-113.614900,48.668550,0</coordinates></Point></Placemark><Placemark><name>St. Mary Falls</name><description>Iconic blue double waterfall — the required final scenery point.</description><Point><coordinates>-113.616390,48.668060,0</coordinates></Point></Placemark><Placemark><name>Virginia Falls</name><description>Optional taller waterfall if the family still has energy.</description><Point><coordinates>-113.613207,48.660183,0</coordinates></Point></Placemark><Placemark><name>Many Glacier Hotel parking · parking</name><description>Parking</description><Point><coordinates>-113.657770,48.796730,0</coordinates></Point></Placemark><Placemark><name>Many Glacier Hotel</name><description>Historic hotel exterior with the Many Glacier peaks.</description><Point><coordinates>-113.658750,48.796150,0</coordinates></Point></Placemark><Placemark><name>Swiftcurrent Lake</name><description>Reflective lake with dramatic peaks immediately beyond the shore.</description><Point><coordinates>-113.661523,48.795345,0</coordinates></Point></Placemark><Placemark><name>Swiftcurrent trailhead / former motor inn area · parking</name><description>Parking</description><Point><coordinates>-113.678540,48.797630,0</coordinates></Point></Placemark><Placemark><name>Fishercap Lake</name><description>Quiet lake and a good wildlife-viewing area on the way.</description><Point><coordinates>-113.688500,48.798400,0</coordinates></Point></Placemark><Placemark><name>Redrock Lake</name><description>Lake-and-mountain view just before the falls.</description><Point><coordinates>-113.700300,48.796150,0</coordinates></Point></Placemark><Placemark><name>Redrock Falls</name><description>Rocky cascades with the Many Glacier mountains behind them.</description><Point><coordinates>-113.711229,48.794852,0</coordinates></Point></Placemark><Placemark><name>Grinnell Lake</name><description>Turquoise lake below Mount Gould and the Grinnell basin.</description><Point><coordinates>-113.701997,48.759664,0</coordinates></Point></Placemark><Placemark><name>Rocky Point Trailhead parking · parking</name><description>Parking</description><Point><coordinates>-113.988321,48.552361,0</coordinates></Point></Placemark><Placemark><name>Rocky Point Trail</name><description>Open Lake McDonald view near Rocky Point.</description><Point><coordinates>-113.975778,48.552389,0</coordinates></Point></Placemark></Document></kml>